{"type":"Feature","properties":{"MUN":"CAPE MAY CITY","COUNTY":"CAPE MAY","MUN_LABEL":"Cape May City","MUN_TYPE":"City","NAME":"Cape May","GNIS_NAME":"City of Cape May"},"geometry":{"type":"Polygon","coordinates":[[[-74.876502,38.9519372],[-74.8762327,38.9518802],[-74.8758731,38.9517014],[-74.8750016,38.9510457],[-74.8738613,38.9498538],[-74.8715189,38.9466461],[-74.8697552,38.9443891],[-74.863541,38.9364353],[-74.8635401,38.9364341],[-74.865147,38.9362958],[-74.8651806,38.9362933],[-74.8662555,38.93762],[-74.8675363,38.9391867],[-74.8688661,38.9407843],[-74.8702512,38.9424484],[-74.8712705,38.9436857],[-74.8714722,38.9439305],[-74.8714977,38.9439316],[-74.8715875,38.9439353],[-74.8717184,38.9439168],[-74.8720082,38.9438658],[-74.8724199,38.9437933],[-74.8727457,38.9437502],[-74.8729099,38.9437436],[-74.8731664,38.9436947],[-74.8734562,38.9436457],[-74.8735075,38.9436194],[-74.8734892,38.9435613],[-74.873489,38.9435192],[-74.8735608,38.943511],[-74.8735764,38.943549],[-74.8737431,38.9435264],[-74.8737717,38.9435925],[-74.8738283,38.9436104],[-74.8743118,38.9435236],[-74.8750016,38.9433821],[-74.8751187,38.943358],[-74.8752433,38.9432996],[-74.8753133,38.9432598],[-74.8753793,38.9431925],[-74.8754299,38.943168],[-74.8754572,38.9431588],[-74.8756639,38.9431307],[-74.8757966,38.9431302],[-74.875906,38.9431573],[-74.8760311,38.9431935],[-74.8761991,38.9432173],[-74.8764825,38.9432383],[-74.8765407,38.9432452],[-74.8766871,38.9432477],[-74.8769001,38.9432419],[-74.8770636,38.9432374],[-74.8772634,38.9432291],[-74.8777036,38.9432109],[-74.8777321,38.9432109],[-74.8781095,38.9432096],[-74.8786088,38.9431684],[-74.8791898,38.943069],[-74.8799577,38.9428775],[-74.8809126,38.9426306],[-74.8824165,38.9421532],[-74.8833826,38.9418178],[-74.8842004,38.9414951],[-74.8848663,38.9412033],[-74.8854619,38.940924],[-74.8864815,38.9403873],[-74.8877559,38.9397018],[-74.8892149,38.9388893],[-74.8900787,38.9384079],[-74.8911607,38.9378709],[-74.891823,38.9375112],[-74.8939062,38.9365062],[-74.895851,38.9356253],[-74.8975655,38.9349367],[-74.8994696,38.9342402],[-74.9011938,38.9336491],[-74.9030148,38.9329817],[-74.9052004,38.932201],[-74.9068879,38.9316431],[-74.9070021,38.9318092],[-74.9075815,38.9317476],[-74.9080996,38.9316266],[-74.9092417,38.9312174],[-74.9103384,38.9309037],[-74.9113891,38.9305424],[-74.9120586,38.9302183],[-74.9124448,38.9300157],[-74.9124785,38.9300004],[-74.9125151,38.9300022],[-74.9125529,38.9300209],[-74.912571,38.9300405],[-74.9126274,38.9302632],[-74.9126348,38.930279],[-74.9126704,38.9302958],[-74.9128466,38.930321],[-74.9130455,38.9303311],[-74.91336,38.9303228],[-74.9139655,38.9302628],[-74.9148527,38.9301224],[-74.9156611,38.9299666],[-74.9158256,38.929907],[-74.9169163,38.9295404],[-74.9176657,38.9292352],[-74.9177117,38.929232],[-74.9177462,38.9292754],[-74.917783,38.9294329],[-74.917822,38.9294576],[-74.917959,38.9295126],[-74.9180686,38.9295421],[-74.918178,38.9295503],[-74.9183063,38.9295263],[-74.9190519,38.9293859],[-74.9198467,38.9292282],[-74.9205429,38.9290591],[-74.9210395,38.9288822],[-74.9213989,38.928741],[-74.9214431,38.9287322],[-74.9214897,38.9287375],[-74.9215113,38.9287449],[-74.9215522,38.9288009],[-74.9215553,38.9290125],[-74.9217016,38.9290589],[-74.9219782,38.9291251],[-74.9222728,38.9291488],[-74.9224902,38.9291515],[-74.9227664,38.929147],[-74.9230606,38.929107],[-74.9239871,38.9289871],[-74.9245937,38.9288544],[-74.9248995,38.9287807],[-74.9252435,38.9287025],[-74.9254837,38.9286248],[-74.925691,38.9285471],[-74.9257694,38.9285266],[-74.9258044,38.9285221],[-74.925844,38.9285295],[-74.9258599,38.9285594],[-74.9258895,38.9288458],[-74.925897,38.9289531],[-74.9259366,38.9291284],[-74.9259868,38.9291954],[-74.9260459,38.9292447],[-74.9263365,38.9293569],[-74.9265407,38.9294233],[-74.9267492,38.9294615],[-74.9270619,38.9294869],[-74.9274921,38.9294853],[-74.9281035,38.929476],[-74.928778,38.9294346],[-74.9292667,38.929362],[-74.9296965,38.9292862],[-74.9299816,38.9292427],[-74.9301472,38.9292272],[-74.9302062,38.929227],[-74.9302669,38.9292452],[-74.9303059,38.9292611],[-74.9303714,38.9292978],[-74.9304984,38.9293292],[-74.9307024,38.9293568],[-74.9308292,38.9293634],[-74.9316392,38.9292489],[-74.9327609,38.9290078],[-74.9337108,38.9288132],[-74.9344886,38.9286211],[-74.9345566,38.9286208],[-74.9345839,38.9286561],[-74.9345717,38.9289407],[-74.9345717,38.9292209],[-74.934687,38.9294203],[-74.9346928,38.9294304],[-74.9349892,38.9297583],[-74.9350528,38.929833],[-74.9351124,38.9299029],[-74.9354309,38.9301387],[-74.9361308,38.9305429],[-74.9366822,38.9307695],[-74.9371112,38.9309704],[-74.9375016,38.9311423],[-74.9377679,38.931238],[-74.9381826,38.9313793],[-74.9385861,38.9314902],[-74.9385324,38.9315154],[-74.9385407,38.9315585],[-74.9385262,38.931588],[-74.9385263,38.9316134],[-74.9385264,38.9316272],[-74.9384954,38.9316893],[-74.9384394,38.9317761],[-74.9383938,38.93184],[-74.9383341,38.9318783],[-74.9382592,38.9319116],[-74.9382162,38.9319417],[-74.9381806,38.9319924],[-74.9381569,38.9320486],[-74.9381284,38.9320992],[-74.9381048,38.932148],[-74.9380714,38.9321893],[-74.9380477,38.9322212],[-74.938019,38.93224],[-74.9379591,38.9322477],[-74.9378536,38.9322519],[-74.9377936,38.9322465],[-74.9377409,38.9322542],[-74.9376834,38.93226],[-74.9376523,38.9322807],[-74.9376286,38.9323145],[-74.9376314,38.9323743],[-74.9376462,38.9324491],[-74.937661,38.932509],[-74.9377057,38.9327686],[-74.9377108,38.9327985],[-74.9377157,38.9328266],[-74.9377256,38.9328696],[-74.937716,38.9328827],[-74.9376753,38.9328847],[-74.9376033,38.9328719],[-74.9375288,38.9328479],[-74.9374385,38.9328122],[-74.9373736,38.93279],[-74.9373111,38.9327734],[-74.9372654,38.9327493],[-74.9372246,38.9327401],[-74.9371862,38.9327271],[-74.937155,38.9327347],[-74.9371216,38.9327479],[-74.9370953,38.9327724],[-74.9370787,38.9328005],[-74.9370717,38.9328361],[-74.9370744,38.9328885],[-74.9370916,38.9329539],[-74.9370919,38.9329969],[-74.9370657,38.9330232],[-74.9370226,38.9330402],[-74.9369796,38.9330647],[-74.9369341,38.9330743],[-74.9368576,38.9331045],[-74.9368122,38.9331346],[-74.9367619,38.9331629],[-74.9367094,38.9332061],[-74.9366714,38.9332549],[-74.93665,38.9332943],[-74.9365998,38.9333188],[-74.9365566,38.9333152],[-74.9365134,38.9332967],[-74.9364748,38.9332631],[-74.9364314,38.9332202],[-74.9363808,38.9331774],[-74.936329,38.9331584],[-74.9362616,38.9331306],[-74.9361848,38.9331028],[-74.9361319,38.9330787],[-74.9360645,38.9330546],[-74.9360093,38.9330473],[-74.935971,38.9330494],[-74.9358943,38.9330553],[-74.9358344,38.933063],[-74.9357624,38.9330632],[-74.9357024,38.9330579],[-74.9356496,38.9330356],[-74.9356276,38.9329739],[-74.9356151,38.9328991],[-74.9356004,38.9328355],[-74.9355904,38.9327719],[-74.9355781,38.9327233],[-74.9355635,38.9326841],[-74.9355419,38.9326748],[-74.9355107,38.9326824],[-74.9354581,38.9327051],[-74.9353623,38.9327335],[-74.9352785,38.9327506],[-74.9352559,38.9327488],[-74.9352101,38.9327451],[-74.9351597,38.9327247],[-74.9350971,38.9327024],[-74.9350443,38.9326858],[-74.9349866,38.9326673],[-74.9349121,38.9326545],[-74.9348378,38.9326379],[-74.9347707,38.9326438],[-74.9347108,38.9326646],[-74.9346415,38.9326929],[-74.9345936,38.9327212],[-74.9345315,38.9327513],[-74.934503,38.9327982],[-74.9345105,38.9328469],[-74.9345178,38.9328781],[-74.9345227,38.9329061],[-74.934523,38.9329529],[-74.9344993,38.9329942],[-74.9344634,38.9330299],[-74.93443,38.9330542],[-74.9343064,38.9331476],[-74.9342386,38.9332055],[-74.9341794,38.9332811],[-74.934129,38.9333876],[-74.9341012,38.9334764],[-74.9340791,38.9335785],[-74.9340768,38.9336672],[-74.9340796,38.9336938],[-74.9339559,38.9336529],[-74.9337968,38.9335959],[-74.9337692,38.9335861],[-74.9336358,38.9335398],[-74.9331858,38.9333985],[-74.9327425,38.9332651],[-74.9323525,38.9331444],[-74.9320275,38.9330364],[-74.9318508,38.9329773],[-74.9316775,38.9329156],[-74.9315508,38.9328693],[-74.931484,38.932828],[-74.9313938,38.9327778],[-74.9306562,38.9351904],[-74.9256313,38.9339914],[-74.9255869,38.9340629],[-74.9255136,38.9341787],[-74.9254687,38.9342797],[-74.9254481,38.9343316],[-74.9254148,38.9344681],[-74.9253937,38.9345956],[-74.9253791,38.9346995],[-74.9253835,38.9347913],[-74.9253933,38.9348387],[-74.9254182,38.934895],[-74.9254529,38.9349704],[-74.9254892,38.9350251],[-74.9255467,38.9351079],[-74.9255868,38.9351596],[-74.9256021,38.9351818],[-74.9256387,38.9352646],[-74.9257072,38.9354482],[-74.9257992,38.9357606],[-74.9258026,38.935776],[-74.9258343,38.9359205],[-74.9258355,38.9359304],[-74.9258442,38.9360005],[-74.9258428,38.9360717],[-74.9258373,38.9361117],[-74.9258244,38.9361814],[-74.9258191,38.9362348],[-74.9258231,38.9362674],[-74.925831,38.9363207],[-74.9258351,38.9363725],[-74.9258315,38.9364156],[-74.9258215,38.9364719],[-74.9258067,38.9365431],[-74.9257881,38.936601],[-74.9257656,38.9366633],[-74.9257301,38.9367494],[-74.9256871,38.9368489],[-74.9256497,38.9369468],[-74.9256199,38.9370373],[-74.9255724,38.9371887],[-74.9255371,38.9373237],[-74.9255096,38.9374809],[-74.9255072,38.9375105],[-74.9254874,38.9375873],[-74.9254493,38.937685],[-74.9254052,38.937764],[-74.9253344,38.9378479],[-74.9252457,38.9379178],[-74.9252132,38.9379528],[-74.9251955,38.93799],[-74.9251781,38.9380457],[-74.9251785,38.9381177],[-74.9251694,38.9382175],[-74.9251521,38.9383035],[-74.9251289,38.9383941],[-74.9250643,38.9385394],[-74.9250143,38.9386232],[-74.9249902,38.9386871],[-74.9249846,38.9387405],[-74.9249862,38.938773],[-74.9250073,38.9388135],[-74.9250537,38.9388621],[-74.9251134,38.9389106],[-74.9251522,38.9389407],[-74.9251933,38.9389788],[-74.9252054,38.9390089],[-74.925207,38.939031],[-74.9252072,38.9390716],[-74.9252,38.9390995],[-74.9251823,38.9391309],[-74.925138,38.9391786],[-74.9250803,38.9392183],[-74.9250255,38.9392487],[-74.924981,38.9392604],[-74.924929,38.9392699],[-74.924913,38.9392715],[-74.9248548,38.9392771],[-74.9248072,38.9392738],[-74.9247655,38.9392624],[-74.9247268,38.9392463],[-74.9246969,38.939222],[-74.9246805,38.9392012],[-74.9246728,38.9391641],[-74.9246651,38.93912],[-74.924653,38.939084],[-74.9246341,38.9390331],[-74.9246116,38.9390053],[-74.9245863,38.9389915],[-74.9245655,38.9389857],[-74.9245254,38.9389917],[-74.9244972,38.9390057],[-74.9244795,38.9390267],[-74.9244685,38.9390511],[-74.9244524,38.9390929],[-74.9244467,38.9391277],[-74.9244394,38.9391556],[-74.9244268,38.9391974],[-74.9244126,38.9392234],[-74.924374,38.9392747],[-74.9243308,38.9393181],[-74.9242831,38.9393614],[-74.9242431,38.9394066],[-74.9242225,38.9394346],[-74.924211,38.9394574],[-74.9241931,38.9395011],[-74.9241848,38.9395219],[-74.9241815,38.9395332],[-74.9241633,38.9395726],[-74.9241468,38.9396112],[-74.924131,38.9396335],[-74.9241127,38.9396512],[-74.9240952,38.9396676],[-74.9240702,38.9396828],[-74.9240526,38.9396894],[-74.924035,38.939694],[-74.9239856,38.9396978],[-74.9239546,38.9396979],[-74.9239434,38.9396972],[-74.9239253,38.9396961],[-74.9238943,38.9396929],[-74.9238625,38.9396917],[-74.9238348,38.9396925],[-74.9238072,38.9396952],[-74.9237863,38.9396985],[-74.9237679,38.9397025],[-74.9237613,38.9397042],[-74.9236533,38.9397314],[-74.9235848,38.9397591],[-74.9235489,38.9397802],[-74.9235197,38.9398078],[-74.9234981,38.9398379],[-74.9234775,38.9398792],[-74.9234451,38.9399386],[-74.923417,38.9399936],[-74.9233929,38.9400277],[-74.9233604,38.9400612],[-74.9233246,38.9400894],[-74.9232828,38.9401138],[-74.9231792,38.9401583],[-74.9231576,38.9401684],[-74.9231066,38.940192],[-74.9230038,38.9402322],[-74.9228024,38.9403065],[-74.922735,38.9403339],[-74.9227191,38.9403408],[-74.9227034,38.9403499],[-74.9226795,38.9403656],[-74.922657,38.9403806],[-74.9226297,38.9403968],[-74.9226071,38.9404081],[-74.9225736,38.9404237],[-74.9225442,38.9404373],[-74.9225093,38.9404497],[-74.9224717,38.9404557],[-74.9224302,38.9404585],[-74.9222678,38.9404602],[-74.922156,38.9404574],[-74.922071,38.9404545],[-74.9220107,38.9404558],[-74.9219737,38.9404597],[-74.9219131,38.9404711],[-74.921822,38.9404886],[-74.9217467,38.9405151],[-74.9216807,38.940541],[-74.9216452,38.9405636],[-74.921622,38.940583],[-74.9216081,38.9405984],[-74.921591,38.9406252],[-74.921578,38.9406632],[-74.9215631,38.940746],[-74.9215548,38.9408339],[-74.921549,38.9409839],[-74.9215361,38.9410391],[-74.9215165,38.9410839],[-74.9214947,38.941134],[-74.9214553,38.9411807],[-74.9214026,38.9412274],[-74.9213521,38.9412638],[-74.9213312,38.9412745],[-74.9213081,38.9412863],[-74.9212574,38.9413055],[-74.9212089,38.9413143],[-74.9211989,38.941315],[-74.9258463,38.9438272],[-74.9254561,38.9453205],[-74.9251323,38.9463972],[-74.9251096,38.9464627],[-74.9249941,38.946796],[-74.9249458,38.9467552],[-74.9248963,38.9467156],[-74.9248457,38.9466775],[-74.9247938,38.9466406],[-74.9247408,38.9466051],[-74.9246867,38.9465709],[-74.9246313,38.946538],[-74.9245748,38.9465065],[-74.9245486,38.9464929],[-74.9245205,38.9464797],[-74.9244902,38.9464665],[-74.924457,38.9464531],[-74.9244277,38.9464421],[-74.9243947,38.9464302],[-74.9242859,38.9463926],[-74.9242469,38.9463788],[-74.9242097,38.946365],[-74.9241766,38.9463519],[-74.9241446,38.9463383],[-74.9241152,38.9463246],[-74.9240879,38.9463107],[-74.9240624,38.9462964],[-74.9240281,38.9462756],[-74.9239944,38.9462541],[-74.9239613,38.946232],[-74.9239289,38.9462091],[-74.9238971,38.9461856],[-74.9238659,38.9461614],[-74.9238353,38.9461365],[-74.9238053,38.9461109],[-74.9237963,38.9460892],[-74.923796,38.9460426],[-74.9237978,38.9460146],[-74.9238154,38.9459703],[-74.9238401,38.9459392],[-74.9238581,38.9459209],[-74.923862,38.9459061],[-74.923859,38.9458952],[-74.9238489,38.9458766],[-74.9238339,38.9458635],[-74.9238199,38.9458511],[-74.9238169,38.9458418],[-74.9238138,38.9458255],[-74.9238078,38.9458155],[-74.9237908,38.9458031],[-74.9237639,38.9457962],[-74.9237077,38.9457933],[-74.9236849,38.9457934],[-74.9236739,38.9457934],[-74.923662,38.945788],[-74.9236549,38.9457756],[-74.9236558,38.9457632],[-74.9236618,38.9457562],[-74.9236756,38.945746],[-74.9236815,38.945739],[-74.9236785,38.945722],[-74.9236695,38.9457096],[-74.9236495,38.9456988],[-74.9235728,38.9456835],[-74.9235226,38.9456783],[-74.9234907,38.9456753],[-74.9234718,38.9456691],[-74.9234568,38.9456568],[-74.9234538,38.9456506],[-74.9234537,38.9456412],[-74.9234557,38.9456304],[-74.9234626,38.9456218],[-74.9234695,38.9456117],[-74.9234694,38.9455954],[-74.9234634,38.9455853],[-74.9234494,38.945583],[-74.9234216,38.9455862],[-74.9233968,38.9455972],[-74.923371,38.9455996],[-74.9233521,38.9455974],[-74.9233361,38.9455865],[-74.9233281,38.9455788],[-74.9233062,38.9455696],[-74.9232853,38.945572],[-74.9232744,38.9455798],[-74.9232715,38.9455969],[-74.9232746,38.9456085],[-74.9232896,38.9456279],[-74.9233036,38.9456472],[-74.9233053,38.9456674],[-74.9233014,38.9456876],[-74.9232896,38.9457032],[-74.9232687,38.9457141],[-74.92324,38.9457235],[-74.9231983,38.94574],[-74.9231755,38.9457533],[-74.9231577,38.9457759],[-74.9231469,38.9457868],[-74.923136,38.945793],[-74.923126,38.9457938],[-74.9231091,38.9457916],[-74.9230922,38.9457792],[-74.9230701,38.9457552],[-74.9230521,38.945739],[-74.9230312,38.9457258],[-74.9229898,38.9457128],[-74.92295,38.9456998],[-74.922941,38.9456951],[-74.922919,38.9456843],[-74.9229011,38.9456696],[-74.9228821,38.9456542],[-74.9228611,38.9456387],[-74.9228412,38.9456272],[-74.9228043,38.9456164],[-74.9227591,38.9456127],[-74.9227302,38.945612],[-74.9227093,38.9456082],[-74.9226923,38.9455989],[-74.9226833,38.9455873],[-74.9226803,38.9455726],[-74.9226812,38.945561],[-74.92269,38.945547],[-74.9227178,38.9455336],[-74.9227357,38.9455336],[-74.9227436,38.9455343],[-74.9227586,38.9455389],[-74.9227666,38.9455389],[-74.9227795,38.9455381],[-74.9227834,38.9455295],[-74.9227833,38.945514],[-74.9227723,38.945497],[-74.9227444,38.9454862],[-74.9227126,38.9454863],[-74.9226877,38.9454903],[-74.9226688,38.9454888],[-74.9226509,38.9454803],[-74.9226368,38.9454586],[-74.9226322,38.9454385],[-74.9226361,38.9454229],[-74.9226578,38.9453894],[-74.9226636,38.9453723],[-74.9226625,38.9453506],[-74.9226585,38.945339],[-74.9226405,38.9453173],[-74.9225262,38.9452416],[-74.9225091,38.9452246],[-74.9225001,38.945206],[-74.922497,38.9451827],[-74.9225008,38.9451609],[-74.9225037,38.9451384],[-74.9225014,38.9451311],[-74.9224986,38.9451221],[-74.9224876,38.9451144],[-74.9224618,38.9451145],[-74.922432,38.9451262],[-74.9223924,38.9451528],[-74.9223557,38.9451677],[-74.9223179,38.945174],[-74.9222911,38.9451741],[-74.9222883,38.9451737],[-74.9222553,38.9451688],[-74.9222214,38.9451557],[-74.9222019,38.9451356],[-74.9221838,38.9451054],[-74.9221707,38.9450798],[-74.9221547,38.9450589],[-74.9221178,38.9450396],[-74.922064,38.9450235],[-74.9220053,38.9450214],[-74.9219942,38.9450213],[-74.9219337,38.9450209],[-74.9218597,38.9450137],[-74.9217873,38.9449974],[-74.921725,38.9449782],[-74.9216559,38.9449493],[-74.9216116,38.9449239],[-74.9216023,38.9449129],[-74.9215946,38.944901],[-74.9215888,38.9448754],[-74.9215844,38.9448534],[-74.9215792,38.9448297],[-74.9215737,38.9448167],[-74.9215573,38.9447884],[-74.9215456,38.9447801],[-74.9215097,38.9447634],[-74.9214881,38.9447544],[-74.9214612,38.9447454],[-74.9214253,38.9447308],[-74.9213983,38.9447134],[-74.9213807,38.9447002],[-74.9213645,38.944687],[-74.9213492,38.944673],[-74.9213375,38.9446577],[-74.9213257,38.9446437],[-74.921314,38.9446291],[-74.9213013,38.9446074],[-74.9212932,38.9445927],[-74.9212882,38.9445795],[-74.9212836,38.9445669],[-74.92128,38.9445557],[-74.9212682,38.9445383],[-74.921252,38.9445208],[-74.9212277,38.9445076],[-74.9211918,38.9444972],[-74.921163,38.9444819],[-74.921137,38.9444667],[-74.9211225,38.9444506],[-74.9211072,38.9444269],[-74.9211008,38.9444108],[-74.9210953,38.9443905],[-74.9210907,38.9443709],[-74.9210861,38.9443514],[-74.9210837,38.9443311],[-74.9210872,38.9443066],[-74.9210888,38.9442842],[-74.9210941,38.9442562],[-74.9210957,38.9442331],[-74.9211009,38.9442051],[-74.9211008,38.9441813],[-74.9210961,38.9441512],[-74.9210866,38.9441233],[-74.9210694,38.9441072],[-74.9210451,38.9440933],[-74.9210209,38.9440836],[-74.9209841,38.9440768],[-74.9209545,38.9440692],[-74.9209123,38.9440595],[-74.9208531,38.9440373],[-74.9207947,38.944018],[-74.9207314,38.9439944],[-74.9206381,38.9439758],[-74.9205591,38.9439544],[-74.9205295,38.9439426],[-74.9205034,38.9439308],[-74.92048,38.9439078],[-74.9204682,38.9438869],[-74.9204618,38.9438659],[-74.9204604,38.9438519],[-74.920463,38.9438351],[-74.9204674,38.9438141],[-74.92047,38.9438043],[-74.9204735,38.9437973],[-74.920477,38.943784],[-74.920476,38.9437721],[-74.9204733,38.9437637],[-74.9204616,38.9437519],[-74.9204427,38.94374],[-74.9204176,38.9437275],[-74.9203978,38.9437213],[-74.9203628,38.9437151],[-74.9203395,38.9437152],[-74.9203135,38.9437146],[-74.9202884,38.943714],[-74.9202705,38.9437106],[-74.9202525,38.9437036],[-74.9202309,38.943689],[-74.9201486,38.9436249],[-74.9201288,38.9436068],[-74.9200946,38.9435838],[-74.9200622,38.9435679],[-74.9200263,38.943554],[-74.9200074,38.9435499],[-74.9199841,38.9435429],[-74.9199707,38.9435388],[-74.9199585,38.9435311],[-74.9199477,38.9435172],[-74.9199413,38.943506],[-74.9199368,38.9434962],[-74.9199367,38.9434857],[-74.9199385,38.9434724],[-74.9199402,38.9434612],[-74.9199445,38.943457],[-74.9199473,38.9434542],[-74.9199562,38.9434486],[-74.9199723,38.9434422],[-74.9199804,38.9434401],[-74.9199911,38.9434394],[-74.9200082,38.9434372],[-74.9200234,38.9434343],[-74.9200359,38.9434308],[-74.9200466,38.9434252],[-74.9200555,38.9434195],[-74.9200618,38.9434125],[-74.9200653,38.9434027],[-74.9200661,38.9433908],[-74.920066,38.9433789],[-74.9200642,38.9433691],[-74.9200615,38.94336],[-74.9200524,38.9433489],[-74.9200434,38.9433377],[-74.9200317,38.94333],[-74.9200129,38.9433259],[-74.9199869,38.9433281],[-74.919952,38.9433338],[-74.9199368,38.9433388],[-74.9199135,38.9433487],[-74.9198966,38.9433564],[-74.919876,38.9433677],[-74.9198598,38.9433781],[-74.9198573,38.9433797],[-74.9198341,38.9433951],[-74.9198189,38.943405],[-74.91978,38.9434156],[-74.919754,38.9434241],[-74.9197201,38.9434361],[-74.9196914,38.9434446],[-74.91967,38.9434489],[-74.9196476,38.9434511],[-74.9196198,38.9434519],[-74.9195902,38.9434436],[-74.9195061,38.9433921],[-74.9194818,38.9433684],[-74.9194673,38.9433517],[-74.9194538,38.94333],[-74.919442,38.9433056],[-74.9194293,38.9432818],[-74.9194166,38.9432595],[-74.9194057,38.9432259],[-74.9193997,38.9432008],[-74.9193879,38.9431861],[-74.9193736,38.9431729],[-74.9193385,38.9431569],[-74.9193044,38.9431458],[-74.919264,38.9431383],[-74.9192201,38.94313],[-74.9191319,38.9431055],[-74.9190792,38.9431435],[-74.9190065,38.9431748],[-74.9189426,38.9431923],[-74.918931,38.9431946],[-74.918839,38.9432133],[-74.9187265,38.9432172],[-74.9186515,38.9432244],[-74.9185876,38.9432349],[-74.9185171,38.943249],[-74.9184642,38.9432647],[-74.918434,38.9432724],[-74.9183474,38.9432944],[-74.918278,38.9433205],[-74.9181878,38.9433742],[-74.9181219,38.9434193],[-74.9180699,38.9434618],[-74.9180626,38.9434677],[-74.9179593,38.9435371],[-74.9178715,38.9436184],[-74.9178014,38.9437013],[-74.9177532,38.943767],[-74.9176624,38.9438897],[-74.9176185,38.9439416],[-74.9176008,38.9439639],[-74.9175857,38.943983],[-74.9175418,38.9440228],[-74.9174846,38.9440592],[-74.9174274,38.9440853],[-74.9173723,38.9441096],[-74.9173437,38.94412],[-74.9173173,38.9441287],[-74.9172432,38.9441465],[-74.9172225,38.9441515],[-74.9171299,38.9441708],[-74.9170639,38.9441934],[-74.9170066,38.9442143],[-74.9169538,38.9442386],[-74.9169327,38.94425],[-74.9169054,38.9442646],[-74.9168273,38.9443114],[-74.9168024,38.9443311],[-74.9167636,38.9443617],[-74.9167088,38.9444153],[-74.9166854,38.9444532],[-74.9166694,38.9444792],[-74.9165973,38.9445932],[-74.9165838,38.9446139],[-74.916501,38.9447417],[-74.9163655,38.944968],[-74.9162617,38.9451247],[-74.9162419,38.9451545],[-74.9161741,38.9452634],[-74.9161506,38.9453134],[-74.9161393,38.9453376],[-74.9161242,38.9453945],[-74.9161201,38.9454497],[-74.9161226,38.9455014],[-74.9161417,38.9455565],[-74.9161433,38.9455595],[-74.9161841,38.9456356],[-74.9162285,38.9456957],[-74.9162686,38.9457456],[-74.9162756,38.9457599],[-74.9162998,38.9458092],[-74.9163201,38.9458677],[-74.9163538,38.9459728],[-74.9163675,38.9460571],[-74.9163703,38.9461023],[-74.9163724,38.9461364],[-74.9163705,38.9462002],[-74.9163687,38.9462657],[-74.9163604,38.946345],[-74.9163247,38.9464675],[-74.9162789,38.9465676],[-74.9162243,38.9466626],[-74.9161608,38.9467507],[-74.9160885,38.9468337],[-74.9160702,38.9468531],[-74.9160007,38.9469271],[-74.9159225,38.9470006],[-74.9158701,38.9470499],[-74.9157669,38.9471381],[-74.915719,38.9471775],[-74.9156681,38.9472195],[-74.9155208,38.9473148],[-74.9154864,38.9473399],[-74.9153527,38.9474378],[-74.9152627,38.9475242],[-74.9151904,38.9476262],[-74.9151579,38.9477245],[-74.9151474,38.9478142],[-74.9151606,38.948002],[-74.9151768,38.9481277],[-74.9151903,38.9481841],[-74.9152107,38.9482689],[-74.9152247,38.9483895],[-74.9152251,38.9484585],[-74.9152101,38.9485343],[-74.9151883,38.9485861],[-74.915151,38.9486242],[-74.9151158,38.9486415],[-74.9150199,38.9486574],[-74.9149338,38.9486525],[-74.9148564,38.9486304],[-74.914779,38.9485928],[-74.9146726,38.9485242],[-74.9145817,38.9484556],[-74.9145196,38.9483937],[-74.9144419,38.9483251],[-74.9143532,38.948241],[-74.9142756,38.9481775],[-74.9140795,38.9480524],[-74.9139932,38.948001],[-74.913898,38.9479634],[-74.9138361,38.9479446],[-74.9137919,38.9479293],[-74.913708,38.9479262],[-74.9136728,38.9479401],[-74.9136201,38.9479816],[-74.9135895,38.9480334],[-74.9135811,38.9481058],[-74.9135816,38.9481954],[-74.9136089,38.948347],[-74.9136185,38.9484779],[-74.9136193,38.9486055],[-74.9136288,38.9487139],[-74.9136132,38.9487372],[-74.9136048,38.9487483],[-74.913596,38.9487591],[-74.9135868,38.9487696],[-74.9135773,38.9487798],[-74.9135673,38.9487896],[-74.913557,38.9487991],[-74.9135496,38.9488053],[-74.9135416,38.9488113],[-74.9135331,38.9488171],[-74.913524,38.9488227],[-74.913504,38.9488335],[-74.9134812,38.9488438],[-74.9134603,38.9488519],[-74.9134363,38.9488603],[-74.9133538,38.9488862],[-74.9133234,38.9488964],[-74.9132944,38.9489074],[-74.9132695,38.9489185],[-74.9132431,38.948931],[-74.9131692,38.9489643],[-74.9131474,38.9489749],[-74.9131285,38.9489848],[-74.9131082,38.9489968],[-74.9130904,38.9490087],[-74.9130749,38.9490209],[-74.9130615,38.9490335],[-74.9130484,38.9490475],[-74.9130365,38.9490614],[-74.9130258,38.9490752],[-74.9130165,38.9490887],[-74.9130084,38.949102],[-74.9130017,38.9491149],[-74.9129964,38.9491275],[-74.9129924,38.9491398],[-74.9129896,38.9491523],[-74.9129877,38.9491655],[-74.9129868,38.9491793],[-74.912987,38.9491935],[-74.9129881,38.949208],[-74.9129902,38.9492227],[-74.9129933,38.9492373],[-74.9129972,38.9492515],[-74.9130029,38.9492665],[-74.9130105,38.9492818],[-74.9130201,38.9492975],[-74.9130319,38.9493137],[-74.9130455,38.9493303],[-74.9130615,38.9493479],[-74.9130802,38.9493668],[-74.9131043,38.94939],[-74.9131165,38.949401],[-74.9131295,38.9494119],[-74.9131433,38.9494226],[-74.9131579,38.9494332],[-74.9131733,38.9494437],[-74.9131895,38.9494541],[-74.9132067,38.9494643],[-74.9132246,38.9494745],[-74.9132434,38.9494845],[-74.9132631,38.9494945],[-74.9133054,38.9495143],[-74.9133523,38.9495343],[-74.9134054,38.9495552],[-74.9134324,38.949565],[-74.913461,38.9495745],[-74.9134912,38.9495836],[-74.9135233,38.9495925],[-74.9135571,38.9496011],[-74.9135936,38.9496097],[-74.9136337,38.9496185],[-74.9136807,38.9496282],[-74.9137044,38.9496322],[-74.9137299,38.949635],[-74.9137575,38.9496366],[-74.9137878,38.9496371],[-74.9138165,38.9496366],[-74.9138489,38.9496352],[-74.9139654,38.9496274],[-74.9140112,38.9496252],[-74.9140352,38.9496246],[-74.9140573,38.9496247],[-74.9140777,38.9496254],[-74.9140967,38.9496267],[-74.9141189,38.9496293],[-74.9141394,38.9496328],[-74.9141583,38.9496374],[-74.9141757,38.9496431],[-74.9141918,38.9496499],[-74.9142066,38.9496578],[-74.9142201,38.9496669],[-74.9142323,38.9496771],[-74.9142555,38.9496986],[-74.9142686,38.9497125],[-74.9142739,38.9497192],[-74.9142779,38.9497254],[-74.914281,38.9497313],[-74.9142829,38.9497368],[-74.9142838,38.9497421],[-74.9142839,38.9497476],[-74.9142832,38.9497534],[-74.9142817,38.9497595],[-74.9142795,38.9497658],[-74.9142764,38.9497723],[-74.9142725,38.949779],[-74.9142678,38.949786],[-74.914256,38.9498006],[-74.9142413,38.9498156],[-74.9142241,38.9498307],[-74.9142054,38.9498449],[-74.9141967,38.9498505],[-74.9141871,38.949856],[-74.9141764,38.9498613],[-74.9141646,38.9498665],[-74.914152,38.9498715],[-74.9141377,38.9498765],[-74.9140995,38.9498888],[-74.9140755,38.9498956],[-74.91405,38.9499014],[-74.9140229,38.9499063],[-74.9139942,38.9499103],[-74.9139638,38.9499134],[-74.9139312,38.9499157],[-74.913896,38.9499172],[-74.9138568,38.949918],[-74.9138385,38.9499179],[-74.9138194,38.9499174],[-74.9137779,38.9499148],[-74.9137348,38.9499107],[-74.9136515,38.9499013],[-74.9135861,38.9498945],[-74.9135534,38.9498907],[-74.9135218,38.9498861],[-74.9134938,38.949881],[-74.9134705,38.9498757],[-74.9134465,38.9498692],[-74.9134215,38.9498615],[-74.9133951,38.9498525],[-74.9133716,38.9498438],[-74.9133456,38.9498337],[-74.9132342,38.9497883],[-74.9131602,38.949759],[-74.9130929,38.9497316],[-74.9130302,38.9497053],[-74.9129712,38.9496798],[-74.9129149,38.9496545],[-74.9128613,38.9496294],[-74.9128101,38.9496045],[-74.9127611,38.9495797],[-74.9127136,38.9495545],[-74.9126681,38.9495291],[-74.9126245,38.9495036],[-74.9125828,38.949478],[-74.9125428,38.949452],[-74.9125045,38.9494258],[-74.9124679,38.9493993],[-74.912433,38.9493725],[-74.9123852,38.9493335],[-74.9123389,38.9492934],[-74.912294,38.949252],[-74.9122504,38.9492095],[-74.9122083,38.9491658],[-74.9121676,38.9491209],[-74.9121283,38.9490748],[-74.9120904,38.9490275],[-74.9120373,38.9488428],[-74.9119578,38.9486828],[-74.9118361,38.9485134],[-74.9116112,38.948269],[-74.9114233,38.9481423],[-74.9111567,38.9479971],[-74.9109691,38.9479317],[-74.9107575,38.9478947],[-74.9105279,38.9478766],[-74.9102561,38.9478635],[-74.910063,38.9478971],[-74.9097676,38.9479736],[-74.9092492,38.9481547],[-74.9089119,38.9483067],[-74.9083823,38.9486199],[-74.9081327,38.9487999],[-74.9079341,38.9489232],[-74.9077534,38.9489993],[-74.9075845,38.9490424],[-74.9074577,38.9490522],[-74.9072885,38.9490339],[-74.907113,38.9489733],[-74.9069556,38.9488984],[-74.9067978,38.9487716],[-74.9065974,38.9485742],[-74.9063426,38.9483676],[-74.906197,38.9482502],[-74.9057885,38.9481054],[-74.9053776,38.9480691],[-74.9052769,38.9480618],[-74.9051761,38.9480549],[-74.9050752,38.9480486],[-74.9049743,38.9480429],[-74.9047695,38.9480318],[-74.9046438,38.9480261],[-74.9045839,38.948024],[-74.9045275,38.9480225],[-74.9044737,38.9480216],[-74.9044221,38.9480213],[-74.9043417,38.9480209],[-74.9043177,38.9480214],[-74.9042963,38.9480224],[-74.9042766,38.9480239],[-74.9042547,38.9480262],[-74.9041856,38.948035],[-74.9041343,38.948042],[-74.9040811,38.9480505],[-74.9040253,38.9480605],[-74.9039659,38.9480723],[-74.903914,38.9480834],[-74.9038563,38.9480964],[-74.9036641,38.9481414],[-74.9035919,38.9481579],[-74.9035199,38.9481735],[-74.9034547,38.9481864],[-74.9033664,38.9482026],[-74.9032739,38.9482187],[-74.9031763,38.9482349],[-74.9030717,38.9482514],[-74.9028753,38.9482809],[-74.9025222,38.9483318],[-74.9023866,38.9483516],[-74.9022499,38.9483724],[-74.902127,38.9483921],[-74.9019834,38.948416],[-74.9018335,38.9484416],[-74.9016757,38.9484691],[-74.9015069,38.948499],[-74.901196,38.9485553],[-74.9004593,38.9486903],[-74.9002658,38.9487253],[-74.9000908,38.9487564],[-74.8996891,38.9488269],[-74.8992426,38.9489045],[-74.8978618,38.9491426],[-74.8960455,38.9494551],[-74.8952604,38.9495896],[-74.8945233,38.9497154],[-74.8938137,38.949836],[-74.8931335,38.949951],[-74.8924772,38.9500615],[-74.8918412,38.9501679],[-74.8910117,38.9503061],[-74.8902741,38.9504283],[-74.8895896,38.9505411],[-74.8889452,38.9506465],[-74.8881827,38.9507704],[-74.8874935,38.9508817],[-74.8868498,38.9509848],[-74.886241,38.9510814],[-74.8855016,38.9511979],[-74.8849734,38.9512799],[-74.8847486,38.9513139],[-74.8844986,38.9513507],[-74.8842524,38.9513861],[-74.8836196,38.9514764],[-74.8832709,38.9515272],[-74.8830863,38.9515549],[-74.8829136,38.9515815],[-74.8827498,38.9516074],[-74.8825931,38.9516329],[-74.882387,38.9516672],[-74.8822258,38.9516943],[-74.8820801,38.9517194],[-74.8819461,38.951743],[-74.8818626,38.9517583],[-74.8817697,38.9517758],[-74.8814695,38.9518344],[-74.8813625,38.9518549],[-74.8812603,38.9518738],[-74.8811676,38.9518902],[-74.8810028,38.951918],[-74.8808434,38.9519438],[-74.8806885,38.9519677],[-74.8805376,38.9519899],[-74.8804155,38.952007],[-74.8802933,38.9520234],[-74.8801709,38.952039],[-74.8800484,38.952054],[-74.8799258,38.9520683],[-74.879803,38.9520819],[-74.87968,38.9520947],[-74.8795568,38.9521069],[-74.8794337,38.9521184],[-74.8793104,38.9521292],[-74.8791868,38.9521393],[-74.8790629,38.9521487],[-74.8789393,38.9521573],[-74.8788154,38.9521653],[-74.8786912,38.9521726],[-74.8785667,38.9521792],[-74.878493,38.9521834],[-74.8784195,38.9521868],[-74.8783462,38.9521892],[-74.878273,38.9521908],[-74.8782001,38.9521914],[-74.8781273,38.9521912],[-74.8780548,38.95219],[-74.8779824,38.952188],[-74.8779102,38.9521851],[-74.8778382,38.9521812],[-74.8777663,38.9521765],[-74.8776947,38.9521709],[-74.8776232,38.9521644],[-74.877552,38.952157],[-74.8774809,38.9521487],[-74.87741,38.9521395],[-74.8773523,38.9521313],[-74.8772948,38.9521225],[-74.8772373,38.9521132],[-74.87718,38.9521032],[-74.8771228,38.9520926],[-74.8770658,38.9520815],[-74.8770088,38.9520697],[-74.876952,38.9520574],[-74.8768953,38.9520444],[-74.8768388,38.9520309],[-74.8767823,38.9520168],[-74.876726,38.952002],[-74.8766698,38.9519867],[-74.8766138,38.9519708],[-74.8765578,38.9519543],[-74.876502,38.9519372]]]}}
